KUZGTU 1 (RS47S)        
1 57217U 23091AV  26170.91199283  .00009456  00000+0  32839-3 0  9996
2 57217  97.5058 235.4198 0012249  89.6543 270.6100 15.29911555164799
SONATE-2                
1 59112U 24043Q   26170.89866640  .00035957  00000+0  46383-3 0  9999
2 59112  97.5538 321.4610 0007180 186.3006 173.8161 15.58891438128318
MESAT1                  
1 60209U 24125G   26170.09059365  .00048291  00000+0  52285-3 0  9992
2 60209  97.2284  27.6161 0009751 196.5946 163.4996 15.63376817109865
OOV-CUBE (TUBSAT-30)    
1 60240U 24128F   26170.58394809  .00001296  00000+0  11023-3 0  9998
2 60240  61.9930 217.2156 0044338 134.2886 226.1856 15.02780984106472
COLIBRI-S (RS67S)       
1 61746U 24199M   26170.90648866  .00018237  00000+0  35237-3 0  9995
2 61746  97.2987  44.7850 0006291 265.1484  94.9048 15.47817592137839
HORS 3 (RS81S)          
1 61753U 24199U   26170.92085024  .00031475  00000+0  46744-3 0  9990
2 61753  97.2969  46.8158 0003821 260.9604  99.1218 15.55133989137986
HORS 4 (RS82S)          
1 61754U 24199V   26170.93730689  .00043339  00000+0  53789-3 0  9995
2 61754  97.2914  48.0519 0003363 240.9513 119.1408 15.59899161138070
SIT-2086                
1 61764U 24199AF  26170.90241693  .00031432  00000+0  49976-3 0  9999
2 61764  97.2928  47.2639 0004884 236.4971 123.5816 15.53246011134855
HYPERVIEW 1G (RS66S)    
1 61772U 24199AP  26170.91959461  .00129359  00000+0  80730-3 0  9997
2 61772  97.2862  50.7780 0004480 208.4670 151.6352 15.76501927135105
ALTAIR (RS65S)          
1 61779U 24199AW  26170.91140648  .00007131  00000+0  19856-3 0  9997
2 61779  97.3023  40.2440 0010923 300.0311  59.9849 15.37057425137535
ASRTU-1 (AO-123)        
1 61781U 24199AY  26170.90169597  .00006249  00000+0  18187-3 0  9998
2 61781  97.2994  39.5476 0012117 303.1265  56.8815 15.35708277134344
SAMSAT-IONOSPHERE (RS7*)
1 61784U 24199BB  26170.82169950  .00039082  00000+0  52459-3 0  9996
2 61784  97.2936  46.7710 0005954 262.7890  97.2689 15.57820508137975
RTU MIREA 1 (RS51S)     
1 61785U 24199BC  26170.90432345  .00049840  00000+0  58456-3 0  9993
2 61785  97.2926  47.7013 0005731 253.0706 106.9924 15.61341325134892
TEVEL2-4                
1 63213U 25052D   26170.65994272  .00015774  00000+0  47105-3 0  9992
2 63213  97.3895  67.0555 0004934  98.3582 261.8220 15.34683062 70490
TEVEL2-5                
1 63214U 25052E   26170.68072246  .00014833  00000+0  44561-3 0  9992
2 63214  97.3892  67.0230 0004893  99.9243 260.2552 15.34509052 70490
TEVEL2-6                
1 63215U 25052F   26170.69311062  .00014726  00000+0  44292-3 0  9998
2 63215  97.3899  67.0201 0004758 100.3374 259.8406 15.34473955 70492
TEVEL2-1                
1 63217U 25052H   26170.65777599  .00014677  00000+0  44898-3 0  9994
2 63217  97.3870  66.6064 0004839 108.6625 251.5144 15.33935464 70478
TEVEL2-3                
1 63218U 25052J   26170.65232947  .00014905  00000+0  45510-3 0  9994
2 63218  97.3873  66.6229 0004838 109.1056 251.0711 15.33991826 70477
TEVEL2-2                
1 63219U 25052K   26170.65807554  .00014696  00000+0  44945-3 0  9995
2 63219  97.3874  66.6088 0004844 109.6610 250.5156 15.33944539 70476
TEVEL2-9                
1 63237U 25052AD  26170.70401008  .00013163  00000+0  42841-3 0  9996
2 63237  97.3933  66.0247 0007998 123.7916 236.4088 15.31960885 70413
TEVEL2-7                
1 63238U 25052AE  26170.68007202  .00012773  00000+0  41965-3 0  9994
2 63238  97.3935  65.9159 0008058 124.2734 235.9272 15.31663206 70403
TEVEL2-8                
1 63239U 25052AF  26170.68834909  .00012538  00000+0  41221-3 0  9991
2 63239  97.3937  65.9009 0008075 124.5955 235.6049 15.31647647 70407
INNOSAT 16 (RS92S7)     
1 64878U 25155C   26170.95385465  .00004650  00000+0  18630-3 0  9997
2 64878  97.4567 138.0726 0010873 165.9976 194.1566 15.25481054 81097
GEOSCAN 6 (RS92S6)      
1 64879U 25155D   26170.92813032  .00008868  00000+0  30580-3 0  9994
2 64879  97.4560 139.4905 0008694 153.7121 206.4562 15.30195067 81185
GEOSCAN 1 (RS92S1)      
1 64880U 25155E   26170.92951165  .00009819  00000+0  33210-3 0  9996
2 64880  97.4557 139.6421 0008665 153.5162 206.6523 15.30794069 81196
239ALFEROV (RS61S)      
1 64881U 25155F   26170.89522366  .00011911  00000+0  37557-3 0  9994
2 64881  97.4558 140.1783 0008360 150.8231 209.3479 15.33001125 81226
GEOSCAN 2 (RS92S2)      
1 64890U 25155Q   26170.92271028  .00009569  00000+0  32106-3 0  9995
2 64890  97.4556 139.7889 0008389 141.4527 218.7314 15.31065255 81202
GEOSCAN 5 (RS92S5)      
1 64891U 25155R   26170.94894898  .00011904  00000+0  37176-3 0  9992
2 64891  97.4550 140.3710 0007109 154.2675 205.8923 15.33318954 81249
GEOSCAN 4 (RS92S4)      
1 64892U 25155S   26170.93286327  .00012846  00000+0  39898-3 0  9993
2 64892  97.4553 140.4039 0007191 153.7740 206.3868 15.33474553 81248
GEOSCAN 3 (RS92S3)      
1 64893U 25155T   26170.93006115  .00015525  00000+0  45205-3 0  9995
2 64893  97.4541 140.8388 0007149 152.2415 207.9211 15.35472486 81270
