OBJECT_NAME,OBJECT_ID,EPOCH,MEAN_MOTION,ECCENTRICITY,INCLINATION,RA_OF_ASC_NODE,ARG_OF_PERICENTER,MEAN_ANOMALY,EPHEMERIS_TYPE,CLASSIFICATION_TYPE,NORAD_CAT_ID,ELEMENT_SET_NO,REV_AT_EPOCH,BSTAR,MEAN_MOTION_DOT,MEAN_MOTION_DDOT
KUZGTU 1 (RS47S),2023-091AV,2026-06-19T21:53:16.180512,15.29911555,.00122493,97.5058,235.4198,89.6543,270.6100,0,U,57217,999,16479,.32839018E-3,.9456E-4,0
SONATE-2,2024-043Q,2026-06-19T21:34:04.776960,15.58891438,.00071808,97.5538,321.4610,186.3006,173.8161,0,U,59112,999,12831,.4638337E-3,.35957E-3,0
MESAT1,2024-125G,2026-06-19T02:10:27.291360,15.63376817,.00097514,97.2284,27.6161,196.5946,163.4996,0,U,60209,999,10986,.52285319E-3,.48291E-3,0
OOV-CUBE (TUBSAT-30),2024-128F,2026-06-19T14:00:53.114976,15.02780984,.00443389,61.9930,217.2156,134.2886,226.1856,0,U,60240,999,10647,.11022768E-3,.1296E-4,0
COLIBRI-S (RS67S),2024-199M,2026-06-19T21:45:20.620224,15.47817592,.00062918,97.2987,44.7850,265.1484,94.9048,0,U,61746,999,13783,.35236573E-3,.18237E-3,0
HORS 3 (RS81S),2024-199U,2026-06-19T22:06:01.460736,15.55133989,.00038217,97.2969,46.8158,260.9604,99.1218,0,U,61753,999,13798,.46743526E-3,.31475E-3,0
HORS 4 (RS82S),2024-199V,2026-06-19T22:29:43.315296,15.59899161,.00033634,97.2914,48.0519,240.9513,119.1408,0,U,61754,999,13807,.53789163E-3,.43339E-3,0
SIT-2086,2024-199AF,2026-06-19T21:39:28.822752,15.53246011,.0004884,97.2928,47.2639,236.4971,123.5816,0,U,61764,999,13485,.49975932E-3,.31432E-3,0
HYPERVIEW 1G (RS66S),2024-199AP,2026-06-19T22:04:12.974304,15.76501927,.00044809,97.2862,50.7780,208.4670,151.6352,0,U,61772,999,13510,.80730407E-3,.129359E-2,0
ALTAIR (RS65S),2024-199AW,2026-06-19T21:52:25.519872,15.37057425,.00109233,97.3023,40.2440,300.0311,59.9849,0,U,61779,999,13753,.19856276E-3,.7131E-4,0
ASRTU-1 (AO-123),2024-199AY,2026-06-19T21:38:26.531808,15.35708277,.00121176,97.2994,39.5476,303.1265,56.8815,0,U,61781,999,13434,.18186588E-3,.6249E-4,0
SAMSAT-IONOSPHERE (RS75S),2024-199BB,2026-06-19T19:43:14.836800,15.57820508,.00059546,97.2936,46.7710,262.7890,97.2689,0,U,61784,999,13797,.52459455E-3,.39082E-3,0
RTU MIREA 1 (RS51S),2024-199BC,2026-06-19T21:42:13.546080,15.61341325,.00057317,97.2926,47.7013,253.0706,106.9924,0,U,61785,999,13489,.58455915E-3,.4984E-3,0
TEVEL2-4,2025-052D,2026-06-19T15:50:19.051008,15.34683062,.00049346,97.3895,67.0555,98.3582,261.8220,0,U,63213,999,7049,.47104725E-3,.15774E-3,0
TEVEL2-5,2025-052E,2026-06-19T16:20:14.420544,15.34509052,.00048935,97.3892,67.0230,99.9243,260.2552,0,U,63214,999,7049,.44560725E-3,.14833E-3,0
TEVEL2-6,2025-052F,2026-06-19T16:38:04.757568,15.34473955,.0004758,97.3899,67.0201,100.3374,259.8406,0,U,63215,999,7049,.44292103E-3,.14726E-3,0
TEVEL2-1,2025-052H,2026-06-19T15:47:11.845536,15.33935464,.00048392,97.3870,66.6064,108.6625,251.5144,0,U,63217,999,7047,.44898213E-3,.14677E-3,0
TEVEL2-3,2025-052J,2026-06-19T15:39:21.266208,15.33991826,.00048387,97.3873,66.6229,109.1056,251.0711,0,U,63218,999,7047,.45509628E-3,.14905E-3,0
TEVEL2-2,2025-052K,2026-06-19T15:47:37.726656,15.33944539,.00048441,97.3874,66.6088,109.6610,250.5156,0,U,63219,999,7047,.44945397E-3,.14696E-3,0
TEVEL2-9,2025-052AD,2026-06-19T16:53:46.470912,15.31960885,.00079981,97.3933,66.0247,123.7916,236.4088,0,U,63237,999,7041,.42841227E-3,.13163E-3,0
TEVEL2-7,2025-052AE,2026-06-19T16:19:18.222528,15.31663206,.00080589,97.3935,65.9159,124.2734,235.9272,0,U,63238,999,7040,.41965297E-3,.12773E-3,0
TEVEL2-8,2025-052AF,2026-06-19T16:31:13.361376,15.31647647,.00080754,97.3937,65.9009,124.5955,235.6049,0,U,63239,999,7040,.41221495E-3,.12538E-3,0
INNOSAT 16 (RS92S7),2025-155C,2026-06-19T22:53:33.041760,15.25481054,.00108736,97.4567,138.0726,165.9976,194.1566,0,U,64878,999,8109,.18630213E-3,.465E-4,0
GEOSCAN 6 (RS92S6),2025-155D,2026-06-19T22:16:30.459648,15.30195067,.00086946,97.4560,139.4905,153.7121,206.4562,0,U,64879,999,8118,.30580155E-3,.8868E-4,0
GEOSCAN 1 (RS92S1),2025-155E,2026-06-19T22:18:29.806560,15.30794069,.00086654,97.4557,139.6421,153.5162,206.6523,0,U,64880,999,8119,.33209564E-3,.9819E-4,0
239ALFEROV (RS61S),2025-155F,2026-06-19T21:29:07.324224,15.33001125,.00083608,97.4558,140.1783,150.8231,209.3479,0,U,64881,999,8122,.37557034E-3,.11911E-3,0
GEOSCAN 2 (RS92S2),2025-155Q,2026-06-19T22:08:42.168192,15.31065255,.00083891,97.4556,139.7889,141.4527,218.7314,0,U,64890,999,8120,.3210561E-3,.9569E-4,0
GEOSCAN 5 (RS92S5),2025-155R,2026-06-19T22:46:29.191872,15.33318954,.00071094,97.4550,140.3710,154.2675,205.8923,0,U,64891,999,8124,.37175558E-3,.11904E-3,0
GEOSCAN 4 (RS92S4),2025-155S,2026-06-19T22:23:19.386528,15.33474553,.00071919,97.4553,140.4039,153.7740,206.3868,0,U,64892,999,8124,.39898028E-3,.12846E-3,0
GEOSCAN 3 (RS92S3),2025-155T,2026-06-19T22:19:17.283360,15.35472486,.00071491,97.4541,140.8388,152.2415,207.9211,0,U,64893,999,8127,.45205047E-3,.15525E-3,0
